{"type": "FeatureCollection", "features": [ {"type": "Feature", "properties": {"norad_id": 65942, "name": "BOTAN", "group": "stations", "lat": -51.15006859132108, "lon": 91.71954995514785, "alt_km": 392.15202300540204, "timestamp": "2025-12-02T06:27:51.819186+00:00", "meta": {"OBJECT_NAME": "BOTAN", "OBJECT_ID": "1998-067XP", "EPOCH": "2025-12-01T00:07:46.260192", "MEAN_MOTION": 15.5994409, "ECCENTRICITY": 0.00045874, "INCLINATION": 51.6292, "RA_OF_ASC_NODE": 198.4381, "ARG_OF_PERICENTER": 161.3348, "MEAN_ANOMALY": 198.7814, "EPHEMERIS_TYPE": 0, "CLASSIFICATION_TYPE": "U", "NORAD_CAT_ID": 65942, "ELEMENT_SET_NO": 999, "REV_AT_EPOCH": 803, "BSTAR": 0.0010535817, "MEAN_MOTION_DOT": 0.00087116, "MEAN_MOTION_DDOT": 0}, "tle": {"line1": "1 65942U 98067XP  25335.00539653  .00087116  00000+0  10536-2 0  9994", "line2": "2 65942  51.6292 198.4381 0004587 161.3348 198.7814 15.59944090  8032"}}, "geometry": {"type": "Point", "coordinates": [91.71954995514785, -51.15006859132108]}}, {"type": "Feature", "properties": {"norad_id": 65943, "name": "E-KAGAKU-1", "group": "stations", "lat": 35.14156717395561, "lon": -133.57434931718018, "alt_km": 390.25356547048887, "timestamp": "2025-12-02T06:27:51.819196+00:00", "meta": {"OBJECT_NAME": "E-KAGAKU-1", "OBJECT_ID": "1998-067XQ", "EPOCH": "2025-12-01T01:00:17.648352", "MEAN_MOTION": 15.57460747, "ECCENTRICITY": 0.00037303, "INCLINATION": 51.6301, "RA_OF_ASC_NODE": 198.6831, "ARG_OF_PERICENTER": 140.2253, "MEAN_ANOMALY": 219.9013, "EPHEMERIS_TYPE": 0, "CLASSIFICATION_TYPE": "U", "NORAD_CAT_ID": 65943, "ELEMENT_SET_NO": 999, "REV_AT_EPOCH": 803, "BSTAR": 0.0008573363, "MEAN_MOTION_DOT": 0.00064224, "MEAN_MOTION_DDOT": 0}, "tle": {"line1": "1 65943U 98067XQ  25335.04187093  .00064224  00000+0  85734-3 0  9994", "line2": "2 65943  51.6301 198.6831 0003730 140.2253 219.9013 15.57460747  8033"}}, "geometry": {"type": "Point", "coordinates": [-133.57434931718018, 35.14156717395561]}}, {"type": "Feature", "properties": {"norad_id": 66052, "name": "HRC MONOBLOCK CAMERA", "group": "stations", "lat": -27.435747029773104, "lon": 37.961037348838325, "alt_km": 410.27575370309387, "timestamp": "2025-12-02T06:27:51.819209+00:00", "meta": {"OBJECT_NAME": "HRC MONOBLOCK CAMERA", "OBJECT_ID": "1998-067XR", "EPOCH": "2025-12-01T20:16:24.066336", "MEAN_MOTION": 15.53090965, "ECCENTRICITY": 0.0004504, "INCLINATION": 51.6297, "RA_OF_ASC_NODE": 195.7879, "ARG_OF_PERICENTER": 140.4183, "MEAN_ANOMALY": 219.7136, "EPHEMERIS_TYPE": 0, "CLASSIFICATION_TYPE": "U", "NORAD_CAT_ID": 66052, "ELEMENT_SET_NO": 999, "REV_AT_EPOCH": 714, "BSTAR": 0.00051886, "MEAN_MOTION_DOT": 0.00032748, "MEAN_MOTION_DDOT": 0}, "tle": {"line1": "1 66052U 98067XR  25335.84472299  .00032748  00000+0  51886-3 0  9996", "line2": "2 66052  51.6297 195.7879 0004504 140.4183 219.7136 15.53090965  7145"}}, "geometry": {"type": "Point", "coordinates": [37.961037348838325, -27.435747029773104]}}, {"type": "Feature", "properties": {"norad_id": 66174, "name": "HTV-X1", "group": "stations", "lat": -51.586246087716646, "lon": 101.90078166183295, "alt_km": 422.92262578978443, "timestamp": "2025-12-02T06:27:51.819219+00:00", "meta": {"OBJECT_NAME": "HTV-X1", "OBJECT_ID": "2025-241A", "EPOCH": "2025-12-01T13:49:44.445504", "MEAN_MOTION": 15.49226524, "ECCENTRICITY": 0.00036473, "INCLINATION": 51.6309, "RA_OF_ASC_NODE": 197.7449, "ARG_OF_PERICENTER": 190.9481, "MEAN_ANOMALY": 169.1428, "EPHEMERIS_TYPE": 0, "CLASSIFICATION_TYPE": "U", "NORAD_CAT_ID": 66174, "ELEMENT_SET_NO": 999, "REV_AT_EPOCH": 51, "BSTAR": 0.00016365535, "MEAN_MOTION_DOT": 8.648e-05, "MEAN_MOTION_DDOT": 0}, "tle": {"line1": "1 66174U 25241A   25335.57620886  .00008648  00000+0  16366-3 0  9998", "line2": "2 66174  51.6309 197.7449 0003647 190.9481 169.1428 15.49226524   510"}}, "geometry": {"type": "Point", "coordinates": [101.90078166183295, -51.586246087716646]}}, {"type": "Feature", "properties": {"norad_id": 66515, "name": "SZ-21 MODULE", "group": "stations", "lat": 29.79863124095924, "lon": -140.5339149491213, "alt_km": 376.33201723698585, "timestamp": "2025-12-02T06:27:51.819229+00:00", "meta": {"OBJECT_NAME": "SZ-21 MODULE", "OBJECT_ID": "2025-246C", "EPOCH": "2025-12-01T17:37:35.067360", "MEAN_MOTION": 15.61686095, "ECCENTRICITY": 0.0005616, "INCLINATION": 41.4764, "RA_OF_ASC_NODE": 83.1398, "ARG_OF_PERICENTER": 194.9686, "MEAN_ANOMALY": 165.0987, "EPHEMERIS_TYPE": 0, "CLASSIFICATION_TYPE": "U", "NORAD_CAT_ID": 66515, "ELEMENT_SET_NO": 999, "REV_AT_EPOCH": 272, "BSTAR": 0.0003376, "MEAN_MOTION_DOT": 0.00029753, "MEAN_MOTION_DDOT": 0}, "tle": {"line1": "1 66515U 25246C   25335.73443365  .00029753  00000+0  33760-3 0  9992", "line2": "2 66515  41.4764  83.1398 0005616 194.9686 165.0987 15.61686095  2728"}}, "geometry": {"type": "Point", "coordinates": [-140.5339149491213, 29.79863124095924]}}, {"type": "Feature", "properties": {"norad_id": 66645, "name": "SHENZHOU-22", "group": "stations", "lat": -9.057762525391391, "lon": 69.8396861174319, "alt_km": 386.8197274650129, "timestamp": "2025-12-02T06:27:51.819242+00:00", "meta": {"OBJECT_NAME": "SHENZHOU-22", "OBJECT_ID": "2025-272A", "EPOCH": "2025-12-01T15:08:36.996864", "MEAN_MOTION": 15.5848082, "ECCENTRICITY": 0.00103969, "INCLINATION": 41.4671, "RA_OF_ASC_NODE": 84.1132, "ARG_OF_PERICENTER": 308.0304, "MEAN_ANOMALY": 51.9595, "EPHEMERIS_TYPE": 0, "CLASSIFICATION_TYPE": "U", "NORAD_CAT_ID": 66645, "ELEMENT_SET_NO": 999, "REV_AT_EPOCH": 26230, "BSTAR": 0.00025188161, "MEAN_MOTION_DOT": 0.00019534, "MEAN_MOTION_DDOT": 0}, "tle": {"line1": "1 66645U 25272A   25335.63098376  .00019534  00000+0  25188-3 0  9993", "line2": "2 66645  41.4671  84.1132 0010396 308.0304  51.9595 15.58480820262306"}}, "geometry": {"type": "Point", "coordinates": [69.8396861174319, -9.057762525391391]}}, {"type": "Feature", "properties": {"norad_id": 66646, "name": "CZ-2F R/B", "group": "stations", "lat": 35.147176758090175, "lon": 130.15596793845165, "alt_km": 281.6128339104107, "timestamp": "2025-12-02T06:27:51.819252+00:00", "meta": {"OBJECT_NAME": "CZ-2F R/B", "OBJECT_ID": "2025-272B", "EPOCH": "2025-11-26T11:17:54.506400", "MEAN_MOTION": 16.01945612, "ECCENTRICITY": 0.01210796, "INCLINATION": 41.4431, "RA_OF_ASC_NODE": 114.9009, "ARG_OF_PERICENTER": 133.7676, "MEAN_ANOMALY": 227.3272, "EPHEMERIS_TYPE": 0, "CLASSIFICATION_TYPE": "U", "NORAD_CAT_ID": 66646, "ELEMENT_SET_NO": 999, "REV_AT_EPOCH": 21, "BSTAR": 0.00029319366, "MEAN_MOTION_DOT": 0.00449059, "MEAN_MOTION_DDOT": 7.567612e-06}, "tle": {"line1": "1 66646U 25272B   25330.47076975  .00449059  75676-5  29319-3 0  9998", "line2": "2 66646  41.4431 114.9009 0121079 133.7676 227.3272 16.01945612   217"}}, "geometry": {"type": "Point", "coordinates": [130.15596793845165, 35.147176758090175]}}, {"type": "Feature", "properties": {"norad_id": 66664, "name": "SOYUZ-MS 28", "group": "stations", "lat": -51.58624620896428, "lon": 101.90078757113433, "alt_km": 422.9226259466059, "timestamp": "2025-12-02T06:27:51.819276+00:00", "meta": {"OBJECT_NAME": "SOYUZ-MS 28", "OBJECT_ID": "2025-275A", "EPOCH": "2025-12-01T13:49:44.445504", "MEAN_MOTION": 15.49226524, "ECCENTRICITY": 0.00036473, "INCLINATION": 51.6309, "RA_OF_ASC_NODE": 197.7449, "ARG_OF_PERICENTER": 190.9481, "MEAN_ANOMALY": 169.1428, "EPHEMERIS_TYPE": 0, "CLASSIFICATION_TYPE": "U", "NORAD_CAT_ID": 66664, "ELEMENT_SET_NO": 999, "REV_AT_EPOCH": 71, "BSTAR": 0.00016365535, "MEAN_MOTION_DOT": 8.648e-05, "MEAN_MOTION_DDOT": 0}, "tle": {"line1": "1 66664U 25275A   25335.57620886  .00008648  00000+0  16366-3 0  9999", "line2": "2 66664  51.6309 197.7449 0003647 190.9481 169.1428 15.49226524   716"}}, "geometry": {"type": "Point", "coordinates": [101.90078757113433, -51.58624620896428]}}]}